ASTROCAST-0401          
1 55110U 23001DF  26068.71172895  .00009750  00000+0  37868-3 0  9995
2 55110  97.5547 160.5206 0008142 188.4231 171.6872 15.26258462176022
STARLINK-35648          
1 66482U 25262AC  26068.00853155  .00039594  00000+0  14406-2 0  9998
2 66482  43.0036 299.8853 0002197 279.1526  80.9077 15.27579872 18642
