[{"OBJECT_NAME":"ASTROCAST-0401","OBJECT_ID":"2023-001DF","EPOCH":"2026-03-09T17:04:53.382144","MEAN_MOTION":15.26258462,"ECCENTRICITY":0.00081423,"INCLINATION":97.5547,"RA_OF_ASC_NODE":160.5206,"ARG_OF_PERICENTER":188.4231,"MEAN_ANOMALY":171.6872,"EPHEMERIS_TYPE":0,"CLASSIFICATION_TYPE":"U","NORAD_CAT_ID":55110,"ELEMENT_SET_NO":999,"REV_AT_EPOCH":17602,"BSTAR":0.00037868349,"MEAN_MOTION_DOT":9.75e-5,"MEAN_MOTION_DDOT":0},{"OBJECT_NAME":"STARLINK-35648","OBJECT_ID":"2025-262AC","EPOCH":"2026-03-09T00:12:17.125920","MEAN_MOTION":15.27579872,"ECCENTRICITY":0.00021972,"INCLINATION":43.0036,"RA_OF_ASC_NODE":299.8853,"ARG_OF_PERICENTER":279.1526,"MEAN_ANOMALY":80.9077,"EPHEMERIS_TYPE":0,"CLASSIFICATION_TYPE":"U","NORAD_CAT_ID":66482,"ELEMENT_SET_NO":999,"REV_AT_EPOCH":1864,"BSTAR":0.0014406005,"MEAN_MOTION_DOT":0.00039594,"MEAN_MOTION_DDOT":0}]
